[
    {
        "Altitude(m)": 612513.9450093037,
        "Argument of Periapsis(deg)": 0.0,
        "Eccentricity": 0.0,
        "Inclination(deg)": 60.0,
        "Latitude(deg)": -28.13600661461823,
        "Longitude(deg)": -142.086930764679,
        "Mean Anomaly(deg)": 212.72730000000004,
        "RAAN(deg)": 120.0,
        "Satellite Name": "Test1 541",
        "Satellite Number": 541,
        "Semi-Major Axis(m)": 6980739.136638005,
        "Time(s)": 0
    },
    {
        "Altitude(m)": 612708.3133095525,
        "Argument of Periapsis(deg)": 0.00010418945913296404,
        "Eccentricity": 0.0,
        "Inclination(deg)": 60.0,
        "Latitude(deg)": -28.64774630617895,
        "Longitude(deg)": -141.72970122624685,
        "Mean Anomaly(deg)": 213.34740614546183,
        "RAAN(deg)": 119.99957995086024,
        "Satellite Name": "Test1 541",
        "Satellite Number": 541,
        "Semi-Major Axis(m)": 6980739.136638005,
        "Time(s)": 10
    },
    {
        "Altitude(m)": 612903.5082824379,
        "Argument of Periapsis(deg)": 0.0002083789182659281,
        "Eccentricity": 0.0,
        "Inclination(deg)": 60.0,
        "Latitude(deg)": -29.158245850285596,
        "Longitude(deg)": -141.3686044567668,
        "Mean Anomaly(deg)": 213.96751229092365,
        "RAAN(deg)": 119.99915990172052,
        "Satellite Name": "Test1 541",
        "Satellite Number": 541,
        "Semi-Major Axis(m)": 6980739.136638005,
        "Time(s)": 20
    },
    {
        "Altitude(m)": 613099.4587177297,
        "Argument of Periapsis(deg)": 0.00031256837739889213,
        "Eccentricity": 0.0,
        "Inclination(deg)": 60.0,
        "Latitude(deg)": -29.667468178101053,
        "Longitude(deg)": -141.00352898525705,
        "Mean Anomaly(deg)": 214.58761843638547,
        "RAAN(deg)": 119.99873985258075,
        "Satellite Name": "Test1 541",
        "Satellite Number": 541,
        "Semi-Major Axis(m)": 6980739.136638005,
        "Time(s)": 30
    },
    {
        "Altitude(m)": 613296.0929233523,
        "Argument of Periapsis(deg)": 0.0004167578365318562,
        "Eccentricity": 0.0,
        "Inclination(deg)": 60.0,
        "Latitude(deg)": -30.175375230024166,
        "Longitude(deg)": -140.6343603532805,
        "Mean Anomaly(deg)": 215.20772458184732,
        "RAAN(deg)": 119.99831980344103,
        "Satellite Name": "Test1 541",
        "Satellite Number": 541,
        "Semi-Major Axis(m)": 6980739.136638005,
        "Time(s)": 40
    },
    {
        "Altitude(m)": 613493.3387570813,
        "Argument of Periapsis(deg)": 0.0005209472956648203,
        "Eccentricity": 0.0,
        "Inclination(deg)": 60.0,
        "Latitude(deg)": -30.681927917179255,
        "Longitude(deg)": -140.26098205725643,
        "Mean Anomaly(deg)": 215.82783072730916,
        "RAAN(deg)": 119.99789975430127,
        "Satellite Name": "Test1 541",
        "Satellite Number": 541,
        "Semi-Major Axis(m)": 6980739.136638005,
        "Time(s)": 50
    },
    {
        "Altitude(m)": 613691.12365846,
        "Argument of Periapsis(deg)": 0.0006251367547977843,
        "Eccentricity": 0.0,
        "Inclination(deg)": 60.0,
        "Latitude(deg)": -31.18708608156883,
        "Longitude(deg)": -139.88327497778343,
        "Mean Anomaly(deg)": 216.44793687277095,
        "RAAN(deg)": 119.99747970516155,
        "Satellite Name": "Test1 541",
        "Satellite Number": 541,
        "Semi-Major Axis(m)": 6980739.136638005,
        "Time(s)": 60
    },
    {
        "Altitude(m)": 613889.3746808708,
        "Argument of Periapsis(deg)": 0.0007293262139307483,
        "Eccentricity": 0.0,
        "Inclination(deg)": 60.0,
        "Latitude(deg)": -31.690808454846206,
        "Longitude(deg)": -139.50111680901296,
        "Mean Anomaly(deg)": 217.0680430182328,
        "RAAN(deg)": 119.99705965602178,
        "Satellite Name": "Test1 541",
        "Satellite Number": 541,
        "Semi-Major Axis(m)": 6980739.136638005,
        "Time(s)": 70
    },
    {
        "Altitude(m)": 614088.0185237693,
        "Argument of Periapsis(deg)": 0.0008335156730637124,
        "Eccentricity": 0.0,
        "Inclination(deg)": 60.0,
        "Latitude(deg)": -32.193052615667796,
        "Longitude(deg)": -139.11438300113528,
        "Mean Anomaly(deg)": 217.68814916369465,
        "RAAN(deg)": 119.99663960688207,
        "Satellite Name": "Test1 541",
        "Satellite Number": 541,
        "Semi-Major Axis(m)": 6980739.136638005,
        "Time(s)": 80
    },
    {
        "Altitude(m)": 614286.9815650847,
        "Argument of Periapsis(deg)": 0.0009377051321966765,
        "Eccentricity": 0.0,
        "Inclination(deg)": 60.0,
        "Latitude(deg)": -32.693774945591464,
        "Longitude(deg)": -138.72294619044033,
        "Mean Anomaly(deg)": 218.3082553091565,
        "RAAN(deg)": 119.9962195577423,
        "Satellite Name": "Test1 541",
        "Satellite Number": 541,
        "Semi-Major Axis(m)": 6980739.136638005,
        "Time(s)": 90
    },
    {
        "Altitude(m)": 614486.1898937271,
        "Argument of Periapsis(deg)": 0.0010418945913296407,
        "Eccentricity": 0.0,
        "Inclination(deg)": 60.0,
        "Latitude(deg)": -33.19293058348082,
        "Longitude(deg)": -138.3266756300619,
        "Mean Anomaly(deg)": 218.92836145461834,
        "RAAN(deg)": 119.99579950860256,
        "Satellite Name": "Test1 541",
        "Satellite Number": 541,
        "Semi-Major Axis(m)": 6980739.136638005,
        "Time(s)": 100
    },
    {
        "Altitude(m)": 614685.5693422239,
        "Argument of Periapsis(deg)": 0.0011460840504626045,
        "Eccentricity": 0.0,
        "Inclination(deg)": 60.0,
        "Latitude(deg)": -33.69047337837825,
        "Longitude(deg)": -137.92543813454648,
        "Mean Anomaly(deg)": 219.54846760008016,
        "RAAN(deg)": 119.99537945946281,
        "Satellite Name": "Test1 541",
        "Satellite Number": 541,
        "Semi-Major Axis(m)": 6980739.136638005,
        "Time(s)": 110
    },
    {
        "Altitude(m)": 614885.0455194435,
        "Argument of Periapsis(deg)": 0.0012502735095955685,
        "Eccentricity": 0.0,
        "Inclination(deg)": 60.0,
        "Latitude(deg)": -34.18635584081691,
        "Longitude(deg)": -137.51909751278959,
        "Mean Anomaly(deg)": 220.16857374554195,
        "RAAN(deg)": 119.99495941032308,
        "Satellite Name": "Test1 541",
        "Satellite Number": 541,
        "Semi-Major Axis(m)": 6980739.136638005,
        "Time(s)": 120
    },
    {
        "Altitude(m)": 615084.5438434227,
        "Argument of Periapsis(deg)": 0.0013544629687285324,
        "Eccentricity": 0.0,
        "Inclination(deg)": 60.0,
        "Latitude(deg)": -34.68052909253683,
        "Longitude(deg)": -137.10751400254517,
        "Mean Anomaly(deg)": 220.78867989100377,
        "RAAN(deg)": 119.99453936118333,
        "Satellite Name": "Test1 541",
        "Satellite Number": 541,
        "Semi-Major Axis(m)": 6980739.136638005,
        "Time(s)": 130
    },
    {
        "Altitude(m)": 615283.9895742314,
        "Argument of Periapsis(deg)": 0.0014586524278614966,
        "Eccentricity": 0.0,
        "Inclination(deg)": 60.0,
        "Latitude(deg)": -35.17294281457436,
        "Longitude(deg)": -136.69054521974286,
        "Mean Anomaly(deg)": 221.40878603646564,
        "RAAN(deg)": 119.9941193120436,
        "Satellite Name": "Test1 541",
        "Satellite Number": 541,
        "Semi-Major Axis(m)": 6980739.136638005,
        "Time(s)": 140
    },
    {
        "Altitude(m)": 615483.307846934,
        "Argument of Periapsis(deg)": 0.0015628418869944607,
        "Eccentricity": 0.0,
        "Inclination(deg)": 60.0,
        "Latitude(deg)": -35.6635451937027,
        "Longitude(deg)": -136.26804559727037,
        "Mean Anomaly(deg)": 222.02889218192746,
        "RAAN(deg)": 119.99369926290385,
        "Satellite Name": "Test1 541",
        "Satellite Number": 541,
        "Semi-Major Axis(m)": 6980739.136638005,
        "Time(s)": 150
    },
    {
        "Altitude(m)": 615682.4237045329,
        "Argument of Periapsis(deg)": 0.0016670313461274247,
        "Eccentricity": 0.0,
        "Inclination(deg)": 60.0,
        "Latitude(deg)": -36.152282867198814,
        "Longitude(deg)": -135.83986582653887,
        "Mean Anomaly(deg)": 222.6489983273893,
        "RAAN(deg)": 119.99327921376411,
        "Satellite Name": "Test1 541",
        "Satellite Number": 541,
        "Semi-Major Axis(m)": 6980739.136638005,
        "Time(s)": 160
    },
    {
        "Altitude(m)": 615881.2621309821,
        "Argument of Periapsis(deg)": 0.0017712208052603888,
        "Eccentricity": 0.0,
        "Inclination(deg)": 60.0,
        "Latitude(deg)": -36.639100865916106,
        "Longitude(deg)": -135.40585381519884,
        "Mean Anomaly(deg)": 223.26910447285115,
        "RAAN(deg)": 119.99285916462436,
        "Satellite Name": "Test1 541",
        "Satellite Number": 541,
        "Semi-Major Axis(m)": 6980739.136638005,
        "Time(s)": 170
    },
    {
        "Altitude(m)": 616079.7480841925,
        "Argument of Periapsis(deg)": 0.001875410264393353,
        "Eccentricity": 0.0,
        "Inclination(deg)": 60.0,
        "Latitude(deg)": -37.12394255565397,
        "Longitude(deg)": -134.9658541357974,
        "Mean Anomaly(deg)": 223.88921061831294,
        "RAAN(deg)": 119.99243911548463,
        "Satellite Name": "Test1 541",
        "Satellite Number": 541,
        "Semi-Major Axis(m)": 6980739.136638005,
        "Time(s)": 180
    },
    {
        "Altitude(m)": 616277.8065290103,
        "Argument of Periapsis(deg)": 0.0019795997235263173,
        "Eccentricity": 0.0,
        "Inclination(deg)": 60.0,
        "Latitude(deg)": -37.60674957681526,
        "Longitude(deg)": -134.51970747884673,
        "Mean Anomaly(deg)": 224.50931676377482,
        "RAAN(deg)": 119.99201906634488,
        "Satellite Name": "Test1 541",
        "Satellite Number": 541,
        "Semi-Major Axis(m)": 6980739.136638005,
        "Time(s)": 190
    }
]